{
  "type": "FeatureCollection",
  "name": "BIPARJOY_IBTRACS_TRACK",
  "crs": {
    "type": "name",
    "properties": {
      "name": "urn:ogc:def:crs:OGC:1.3:CRS84"
    }
  },
  "features": [
    {
      "type": "Feature",
      "geometry": {
        "type": "LineString",
        "coordinates": [
          [
            66.7,
            10.3
          ],
          [
            66.6,
            10.5
          ],
          [
            66.5,
            10.7
          ],
          [
            66.4,
            10.8
          ],
          [
            66.3,
            11.0
          ],
          [
            66.2,
            11.2
          ],
          [
            66.1,
            11.4
          ],
          [
            66.0,
            11.5
          ],
          [
            66.0,
            11.5
          ],
          [
            66.0,
            11.7
          ],
          [
            65.9,
            11.9
          ],
          [
            66.0,
            12.0
          ],
          [
            66.0,
            12.2
          ],
          [
            66.0,
            12.3
          ],
          [
            66.1,
            12.5
          ],
          [
            66.2,
            12.5
          ],
          [
            66.3,
            12.6
          ],
          [
            66.3,
            12.8
          ],
          [
            66.4,
            13.0
          ],
          [
            66.3,
            13.2
          ],
          [
            66.2,
            13.3
          ],
          [
            66.2,
            13.4
          ],
          [
            66.1,
            13.6
          ],
          [
            66.0,
            13.6
          ],
          [
            66.1,
            13.8
          ],
          [
            66.0,
            13.9
          ],
          [
            66.0,
            14.0
          ],
          [
            66.0,
            14.2
          ],
          [
            66.0,
            14.3
          ],
          [
            66.0,
            14.4
          ],
          [
            66.1,
            14.6
          ],
          [
            66.1,
            14.6
          ],
          [
            66.3,
            14.8
          ],
          [
            66.5,
            14.8
          ],
          [
            66.8,
            15.0
          ],
          [
            67.0,
            15.3
          ],
          [
            67.2,
            15.6
          ],
          [
            67.3,
            15.9
          ],
          [
            67.4,
            16.2
          ],
          [
            67.4,
            16.3
          ],
          [
            67.4,
            16.5
          ],
          [
            67.3,
            16.6
          ],
          [
            67.3,
            16.7
          ],
          [
            67.4,
            16.9
          ],
          [
            67.3,
            17.2
          ],
          [
            67.3,
            17.4
          ],
          [
            67.4,
            17.5
          ],
          [
            67.4,
            17.6
          ],
          [
            67.6,
            17.8
          ],
          [
            67.7,
            18.0
          ],
          [
            67.8,
            18.3
          ],
          [
            67.8,
            18.5
          ],
          [
            67.8,
            18.7
          ],
          [
            67.8,
            18.8
          ],
          [
            67.8,
            18.9
          ],
          [
            67.7,
            19.0
          ],
          [
            67.7,
            19.2
          ],
          [
            67.6,
            19.4
          ],
          [
            67.5,
            19.7
          ],
          [
            67.4,
            19.8
          ],
          [
            67.3,
            19.9
          ],
          [
            67.2,
            20.0
          ],
          [
            67.2,
            20.2
          ],
          [
            67.2,
            20.4
          ],
          [
            67.0,
            20.7
          ],
          [
            66.9,
            20.9
          ],
          [
            66.8,
            21.0
          ],
          [
            66.5,
            21.1
          ],
          [
            66.5,
            21.2
          ],
          [
            66.4,
            21.3
          ],
          [
            66.4,
            21.5
          ],
          [
            66.3,
            21.5
          ],
          [
            66.3,
            21.6
          ],
          [
            66.3,
            21.6
          ],
          [
            66.4,
            21.6
          ],
          [
            66.6,
            21.7
          ],
          [
            66.7,
            21.9
          ],
          [
            66.8,
            22.1
          ],
          [
            66.8,
            22.2
          ],
          [
            66.8,
            22.3
          ],
          [
            67.0,
            22.3
          ],
          [
            67.1,
            22.5
          ],
          [
            67.3,
            22.6
          ],
          [
            67.7,
            22.7
          ],
          [
            68.1,
            22.8
          ],
          [
            68.4,
            23.1
          ],
          [
            68.6,
            23.3
          ],
          [
            68.8,
            23.4
          ],
          [
            69.1,
            23.5
          ],
          [
            69.4,
            23.5
          ],
          [
            69.7,
            23.7
          ],
          [
            70.0,
            23.9
          ],
          [
            70.4,
            24.2
          ],
          [
            70.7,
            24.5
          ],
          [
            70.9,
            24.6
          ],
          [
            71.0,
            24.7
          ],
          [
            71.2,
            24.8
          ],
          [
            71.5,
            25.0
          ],
          [
            71.9,
            25.3
          ],
          [
            72.2,
            25.5
          ],
          [
            72.5,
            25.6
          ],
          [
            72.7,
            25.7
          ],
          [
            72.8,
            25.8
          ],
          [
            73.0,
            25.9
          ],
          [
            73.3,
            26.0
          ],
          [
            73.8,
            26.2
          ],
          [
            74.0,
            26.3
          ],
          [
            74.3,
            26.3
          ],
          [
            74.7,
            26.3
          ],
          [
            74.9,
            26.3
          ],
          [
            75.2,
            26.3
          ],
          [
            75.6,
            26.3
          ],
          [
            76.0,
            26.3
          ]
        ]
      },
      "properties": {
        "SID": "2023156N10067",
        "NAME": "BIPARJOY",
        "SEASON": "2023",
        "LANDFALL": "Jakhau Port / Mandvi, Kutch, Gujarat",
        "TOTAL_TRACK_POINTS": 113
      }
    },
    {
      "type": "Feature",
      "geometry": {
        "type": "Point",
        "coordinates": [
          66.7,
          10.3
        ]
      },
      "properties": {
        "SID": "2023156N10067",
        "NAME": "BIPARJOY",
        "ISO_TIME": "2023-06-05 00:00:00",
        "WMO_WIND": null,
        "WMO_PRES": null
      }
    },
    {
      "type": "Feature",
      "geometry": {
        "type": "Point",
        "coordinates": [
          66.6,
          10.5
        ]
      },
      "properties": {
        "SID": "2023156N10067",
        "NAME": "BIPARJOY",
        "ISO_TIME": "2023-06-05 03:00:00",
        "WMO_WIND": null,
        "WMO_PRES": null
      }
    },
    {
      "type": "Feature",
      "geometry": {
        "type": "Point",
        "coordinates": [
          66.5,
          10.7
        ]
      },
      "properties": {
        "SID": "2023156N10067",
        "NAME": "BIPARJOY",
        "ISO_TIME": "2023-06-05 06:00:00",
        "WMO_WIND": null,
        "WMO_PRES": null
      }
    },
    {
      "type": "Feature",
      "geometry": {
        "type": "Point",
        "coordinates": [
          66.4,
          10.8
        ]
      },
      "properties": {
        "SID": "2023156N10067",
        "NAME": "BIPARJOY",
        "ISO_TIME": "2023-06-05 09:00:00",
        "WMO_WIND": null,
        "WMO_PRES": null
      }
    },
    {
      "type": "Feature",
      "geometry": {
        "type": "Point",
        "coordinates": [
          66.3,
          11.0
        ]
      },
      "properties": {
        "SID": "2023156N10067",
        "NAME": "BIPARJOY",
        "ISO_TIME": "2023-06-05 12:00:00",
        "WMO_WIND": null,
        "WMO_PRES": null
      }
    },
    {
      "type": "Feature",
      "geometry": {
        "type": "Point",
        "coordinates": [
          66.2,
          11.2
        ]
      },
      "properties": {
        "SID": "2023156N10067",
        "NAME": "BIPARJOY",
        "ISO_TIME": "2023-06-05 15:00:00",
        "WMO_WIND": null,
        "WMO_PRES": null
      }
    },
    {
      "type": "Feature",
      "geometry": {
        "type": "Point",
        "coordinates": [
          66.1,
          11.4
        ]
      },
      "properties": {
        "SID": "2023156N10067",
        "NAME": "BIPARJOY",
        "ISO_TIME": "2023-06-05 18:00:00",
        "WMO_WIND": null,
        "WMO_PRES": null
      }
    },
    {
      "type": "Feature",
      "geometry": {
        "type": "Point",
        "coordinates": [
          66.0,
          11.5
        ]
      },
      "properties": {
        "SID": "2023156N10067",
        "NAME": "BIPARJOY",
        "ISO_TIME": "2023-06-05 21:00:00",
        "WMO_WIND": null,
        "WMO_PRES": null
      }
    },
    {
      "type": "Feature",
      "geometry": {
        "type": "Point",
        "coordinates": [
          66.0,
          11.5
        ]
      },
      "properties": {
        "SID": "2023156N10067",
        "NAME": "BIPARJOY",
        "ISO_TIME": "2023-06-06 00:00:00",
        "WMO_WIND": 25,
        "WMO_PRES": 1000
      }
    },
    {
      "type": "Feature",
      "geometry": {
        "type": "Point",
        "coordinates": [
          66.0,
          11.7
        ]
      },
      "properties": {
        "SID": "2023156N10067",
        "NAME": "BIPARJOY",
        "ISO_TIME": "2023-06-06 03:00:00",
        "WMO_WIND": 25,
        "WMO_PRES": 1000
      }
    },
    {
      "type": "Feature",
      "geometry": {
        "type": "Point",
        "coordinates": [
          65.9,
          11.9
        ]
      },
      "properties": {
        "SID": "2023156N10067",
        "NAME": "BIPARJOY",
        "ISO_TIME": "2023-06-06 06:00:00",
        "WMO_WIND": 30,
        "WMO_PRES": 999
      }
    },
    {
      "type": "Feature",
      "geometry": {
        "type": "Point",
        "coordinates": [
          66.0,
          12.0
        ]
      },
      "properties": {
        "SID": "2023156N10067",
        "NAME": "BIPARJOY",
        "ISO_TIME": "2023-06-06 09:00:00",
        "WMO_WIND": null,
        "WMO_PRES": null
      }
    },
    {
      "type": "Feature",
      "geometry": {
        "type": "Point",
        "coordinates": [
          66.0,
          12.2
        ]
      },
      "properties": {
        "SID": "2023156N10067",
        "NAME": "BIPARJOY",
        "ISO_TIME": "2023-06-06 12:00:00",
        "WMO_WIND": 35,
        "WMO_PRES": 998
      }
    },
    {
      "type": "Feature",
      "geometry": {
        "type": "Point",
        "coordinates": [
          66.0,
          12.3
        ]
      },
      "properties": {
        "SID": "2023156N10067",
        "NAME": "BIPARJOY",
        "ISO_TIME": "2023-06-06 15:00:00",
        "WMO_WIND": 35,
        "WMO_PRES": 998
      }
    },
    {
      "type": "Feature",
      "geometry": {
        "type": "Point",
        "coordinates": [
          66.1,
          12.5
        ]
      },
      "properties": {
        "SID": "2023156N10067",
        "NAME": "BIPARJOY",
        "ISO_TIME": "2023-06-06 18:00:00",
        "WMO_WIND": 40,
        "WMO_PRES": 996
      }
    },
    {
      "type": "Feature",
      "geometry": {
        "type": "Point",
        "coordinates": [
          66.2,
          12.5
        ]
      },
      "properties": {
        "SID": "2023156N10067",
        "NAME": "BIPARJOY",
        "ISO_TIME": "2023-06-06 21:00:00",
        "WMO_WIND": 45,
        "WMO_PRES": 996
      }
    },
    {
      "type": "Feature",
      "geometry": {
        "type": "Point",
        "coordinates": [
          66.3,
          12.6
        ]
      },
      "properties": {
        "SID": "2023156N10067",
        "NAME": "BIPARJOY",
        "ISO_TIME": "2023-06-07 00:00:00",
        "WMO_WIND": 55,
        "WMO_PRES": 990
      }
    },
    {
      "type": "Feature",
      "geometry": {
        "type": "Point",
        "coordinates": [
          66.3,
          12.8
        ]
      },
      "properties": {
        "SID": "2023156N10067",
        "NAME": "BIPARJOY",
        "ISO_TIME": "2023-06-07 03:00:00",
        "WMO_WIND": 60,
        "WMO_PRES": 988
      }
    },
    {
      "type": "Feature",
      "geometry": {
        "type": "Point",
        "coordinates": [
          66.4,
          13.0
        ]
      },
      "properties": {
        "SID": "2023156N10067",
        "NAME": "BIPARJOY",
        "ISO_TIME": "2023-06-07 06:00:00",
        "WMO_WIND": 65,
        "WMO_PRES": 983
      }
    },
    {
      "type": "Feature",
      "geometry": {
        "type": "Point",
        "coordinates": [
          66.3,
          13.2
        ]
      },
      "properties": {
        "SID": "2023156N10067",
        "NAME": "BIPARJOY",
        "ISO_TIME": "2023-06-07 09:00:00",
        "WMO_WIND": 65,
        "WMO_PRES": 983
      }
    },
    {
      "type": "Feature",
      "geometry": {
        "type": "Point",
        "coordinates": [
          66.2,
          13.3
        ]
      },
      "properties": {
        "SID": "2023156N10067",
        "NAME": "BIPARJOY",
        "ISO_TIME": "2023-06-07 12:00:00",
        "WMO_WIND": 65,
        "WMO_PRES": 983
      }
    },
    {
      "type": "Feature",
      "geometry": {
        "type": "Point",
        "coordinates": [
          66.2,
          13.4
        ]
      },
      "properties": {
        "SID": "2023156N10067",
        "NAME": "BIPARJOY",
        "ISO_TIME": "2023-06-07 15:00:00",
        "WMO_WIND": 65,
        "WMO_PRES": 983
      }
    },
    {
      "type": "Feature",
      "geometry": {
        "type": "Point",
        "coordinates": [
          66.1,
          13.6
        ]
      },
      "properties": {
        "SID": "2023156N10067",
        "NAME": "BIPARJOY",
        "ISO_TIME": "2023-06-07 18:00:00",
        "WMO_WIND": 70,
        "WMO_PRES": 980
      }
    },
    {
      "type": "Feature",
      "geometry": {
        "type": "Point",
        "coordinates": [
          66.0,
          13.6
        ]
      },
      "properties": {
        "SID": "2023156N10067",
        "NAME": "BIPARJOY",
        "ISO_TIME": "2023-06-07 21:00:00",
        "WMO_WIND": 70,
        "WMO_PRES": 980
      }
    },
    {
      "type": "Feature",
      "geometry": {
        "type": "Point",
        "coordinates": [
          66.1,
          13.8
        ]
      },
      "properties": {
        "SID": "2023156N10067",
        "NAME": "BIPARJOY",
        "ISO_TIME": "2023-06-08 00:00:00",
        "WMO_WIND": 75,
        "WMO_PRES": 978
      }
    },
    {
      "type": "Feature",
      "geometry": {
        "type": "Point",
        "coordinates": [
          66.0,
          13.9
        ]
      },
      "properties": {
        "SID": "2023156N10067",
        "NAME": "BIPARJOY",
        "ISO_TIME": "2023-06-08 03:00:00",
        "WMO_WIND": 75,
        "WMO_PRES": 978
      }
    },
    {
      "type": "Feature",
      "geometry": {
        "type": "Point",
        "coordinates": [
          66.0,
          14.0
        ]
      },
      "properties": {
        "SID": "2023156N10067",
        "NAME": "BIPARJOY",
        "ISO_TIME": "2023-06-08 06:00:00",
        "WMO_WIND": 75,
        "WMO_PRES": 978
      }
    },
    {
      "type": "Feature",
      "geometry": {
        "type": "Point",
        "coordinates": [
          66.0,
          14.2
        ]
      },
      "properties": {
        "SID": "2023156N10067",
        "NAME": "BIPARJOY",
        "ISO_TIME": "2023-06-08 09:00:00",
        "WMO_WIND": 75,
        "WMO_PRES": 978
      }
    },
    {
      "type": "Feature",
      "geometry": {
        "type": "Point",
        "coordinates": [
          66.0,
          14.3
        ]
      },
      "properties": {
        "SID": "2023156N10067",
        "NAME": "BIPARJOY",
        "ISO_TIME": "2023-06-08 12:00:00",
        "WMO_WIND": 75,
        "WMO_PRES": 978
      }
    },
    {
      "type": "Feature",
      "geometry": {
        "type": "Point",
        "coordinates": [
          66.0,
          14.4
        ]
      },
      "properties": {
        "SID": "2023156N10067",
        "NAME": "BIPARJOY",
        "ISO_TIME": "2023-06-08 15:00:00",
        "WMO_WIND": 75,
        "WMO_PRES": 978
      }
    },
    {
      "type": "Feature",
      "geometry": {
        "type": "Point",
        "coordinates": [
          66.1,
          14.6
        ]
      },
      "properties": {
        "SID": "2023156N10067",
        "NAME": "BIPARJOY",
        "ISO_TIME": "2023-06-08 18:00:00",
        "WMO_WIND": 75,
        "WMO_PRES": 978
      }
    },
    {
      "type": "Feature",
      "geometry": {
        "type": "Point",
        "coordinates": [
          66.1,
          14.6
        ]
      },
      "properties": {
        "SID": "2023156N10067",
        "NAME": "BIPARJOY",
        "ISO_TIME": "2023-06-08 21:00:00",
        "WMO_WIND": 75,
        "WMO_PRES": 978
      }
    },
    {
      "type": "Feature",
      "geometry": {
        "type": "Point",
        "coordinates": [
          66.3,
          14.8
        ]
      },
      "properties": {
        "SID": "2023156N10067",
        "NAME": "BIPARJOY",
        "ISO_TIME": "2023-06-09 00:00:00",
        "WMO_WIND": 75,
        "WMO_PRES": 978
      }
    },
    {
      "type": "Feature",
      "geometry": {
        "type": "Point",
        "coordinates": [
          66.5,
          14.8
        ]
      },
      "properties": {
        "SID": "2023156N10067",
        "NAME": "BIPARJOY",
        "ISO_TIME": "2023-06-09 03:00:00",
        "WMO_WIND": 70,
        "WMO_PRES": 980
      }
    },
    {
      "type": "Feature",
      "geometry": {
        "type": "Point",
        "coordinates": [
          66.8,
          15.0
        ]
      },
      "properties": {
        "SID": "2023156N10067",
        "NAME": "BIPARJOY",
        "ISO_TIME": "2023-06-09 06:00:00",
        "WMO_WIND": 70,
        "WMO_PRES": 980
      }
    },
    {
      "type": "Feature",
      "geometry": {
        "type": "Point",
        "coordinates": [
          67.0,
          15.3
        ]
      },
      "properties": {
        "SID": "2023156N10067",
        "NAME": "BIPARJOY",
        "ISO_TIME": "2023-06-09 09:00:00",
        "WMO_WIND": 70,
        "WMO_PRES": 980
      }
    },
    {
      "type": "Feature",
      "geometry": {
        "type": "Point",
        "coordinates": [
          67.2,
          15.6
        ]
      },
      "properties": {
        "SID": "2023156N10067",
        "NAME": "BIPARJOY",
        "ISO_TIME": "2023-06-09 12:00:00",
        "WMO_WIND": 65,
        "WMO_PRES": 982
      }
    },
    {
      "type": "Feature",
      "geometry": {
        "type": "Point",
        "coordinates": [
          67.3,
          15.9
        ]
      },
      "properties": {
        "SID": "2023156N10067",
        "NAME": "BIPARJOY",
        "ISO_TIME": "2023-06-09 15:00:00",
        "WMO_WIND": 65,
        "WMO_PRES": 982
      }
    },
    {
      "type": "Feature",
      "geometry": {
        "type": "Point",
        "coordinates": [
          67.4,
          16.2
        ]
      },
      "properties": {
        "SID": "2023156N10067",
        "NAME": "BIPARJOY",
        "ISO_TIME": "2023-06-09 18:00:00",
        "WMO_WIND": 70,
        "WMO_PRES": 978
      }
    },
    {
      "type": "Feature",
      "geometry": {
        "type": "Point",
        "coordinates": [
          67.4,
          16.3
        ]
      },
      "properties": {
        "SID": "2023156N10067",
        "NAME": "BIPARJOY",
        "ISO_TIME": "2023-06-09 21:00:00",
        "WMO_WIND": 70,
        "WMO_PRES": 976
      }
    },
    {
      "type": "Feature",
      "geometry": {
        "type": "Point",
        "coordinates": [
          67.4,
          16.5
        ]
      },
      "properties": {
        "SID": "2023156N10067",
        "NAME": "BIPARJOY",
        "ISO_TIME": "2023-06-10 00:00:00",
        "WMO_WIND": 75,
        "WMO_PRES": 974
      }
    },
    {
      "type": "Feature",
      "geometry": {
        "type": "Point",
        "coordinates": [
          67.3,
          16.6
        ]
      },
      "properties": {
        "SID": "2023156N10067",
        "NAME": "BIPARJOY",
        "ISO_TIME": "2023-06-10 03:00:00",
        "WMO_WIND": 75,
        "WMO_PRES": 972
      }
    },
    {
      "type": "Feature",
      "geometry": {
        "type": "Point",
        "coordinates": [
          67.3,
          16.7
        ]
      },
      "properties": {
        "SID": "2023156N10067",
        "NAME": "BIPARJOY",
        "ISO_TIME": "2023-06-10 06:00:00",
        "WMO_WIND": 75,
        "WMO_PRES": 970
      }
    },
    {
      "type": "Feature",
      "geometry": {
        "type": "Point",
        "coordinates": [
          67.4,
          16.9
        ]
      },
      "properties": {
        "SID": "2023156N10067",
        "NAME": "BIPARJOY",
        "ISO_TIME": "2023-06-10 09:00:00",
        "WMO_WIND": 80,
        "WMO_PRES": 966
      }
    },
    {
      "type": "Feature",
      "geometry": {
        "type": "Point",
        "coordinates": [
          67.3,
          17.2
        ]
      },
      "properties": {
        "SID": "2023156N10067",
        "NAME": "BIPARJOY",
        "ISO_TIME": "2023-06-10 12:00:00",
        "WMO_WIND": 80,
        "WMO_PRES": 964
      }
    },
    {
      "type": "Feature",
      "geometry": {
        "type": "Point",
        "coordinates": [
          67.3,
          17.4
        ]
      },
      "properties": {
        "SID": "2023156N10067",
        "NAME": "BIPARJOY",
        "ISO_TIME": "2023-06-10 15:00:00",
        "WMO_WIND": 80,
        "WMO_PRES": 964
      }
    },
    {
      "type": "Feature",
      "geometry": {
        "type": "Point",
        "coordinates": [
          67.4,
          17.5
        ]
      },
      "properties": {
        "SID": "2023156N10067",
        "NAME": "BIPARJOY",
        "ISO_TIME": "2023-06-10 18:00:00",
        "WMO_WIND": 85,
        "WMO_PRES": 962
      }
    },
    {
      "type": "Feature",
      "geometry": {
        "type": "Point",
        "coordinates": [
          67.4,
          17.6
        ]
      },
      "properties": {
        "SID": "2023156N10067",
        "NAME": "BIPARJOY",
        "ISO_TIME": "2023-06-10 21:00:00",
        "WMO_WIND": 85,
        "WMO_PRES": 962
      }
    },
    {
      "type": "Feature",
      "geometry": {
        "type": "Point",
        "coordinates": [
          67.6,
          17.8
        ]
      },
      "properties": {
        "SID": "2023156N10067",
        "NAME": "BIPARJOY",
        "ISO_TIME": "2023-06-11 00:00:00",
        "WMO_WIND": 90,
        "WMO_PRES": 960
      }
    },
    {
      "type": "Feature",
      "geometry": {
        "type": "Point",
        "coordinates": [
          67.7,
          18.0
        ]
      },
      "properties": {
        "SID": "2023156N10067",
        "NAME": "BIPARJOY",
        "ISO_TIME": "2023-06-11 03:00:00",
        "WMO_WIND": 90,
        "WMO_PRES": 958
      }
    },
    {
      "type": "Feature",
      "geometry": {
        "type": "Point",
        "coordinates": [
          67.8,
          18.3
        ]
      },
      "properties": {
        "SID": "2023156N10067",
        "NAME": "BIPARJOY",
        "ISO_TIME": "2023-06-11 06:00:00",
        "WMO_WIND": 90,
        "WMO_PRES": 958
      }
    },
    {
      "type": "Feature",
      "geometry": {
        "type": "Point",
        "coordinates": [
          67.8,
          18.5
        ]
      },
      "properties": {
        "SID": "2023156N10067",
        "NAME": "BIPARJOY",
        "ISO_TIME": "2023-06-11 09:00:00",
        "WMO_WIND": 90,
        "WMO_PRES": 958
      }
    },
    {
      "type": "Feature",
      "geometry": {
        "type": "Point",
        "coordinates": [
          67.8,
          18.7
        ]
      },
      "properties": {
        "SID": "2023156N10067",
        "NAME": "BIPARJOY",
        "ISO_TIME": "2023-06-11 12:00:00",
        "WMO_WIND": 90,
        "WMO_PRES": 958
      }
    },
    {
      "type": "Feature",
      "geometry": {
        "type": "Point",
        "coordinates": [
          67.8,
          18.8
        ]
      },
      "properties": {
        "SID": "2023156N10067",
        "NAME": "BIPARJOY",
        "ISO_TIME": "2023-06-11 15:00:00",
        "WMO_WIND": 90,
        "WMO_PRES": 958
      }
    },
    {
      "type": "Feature",
      "geometry": {
        "type": "Point",
        "coordinates": [
          67.8,
          18.9
        ]
      },
      "properties": {
        "SID": "2023156N10067",
        "NAME": "BIPARJOY",
        "ISO_TIME": "2023-06-11 18:00:00",
        "WMO_WIND": 90,
        "WMO_PRES": 958
      }
    },
    {
      "type": "Feature",
      "geometry": {
        "type": "Point",
        "coordinates": [
          67.7,
          19.0
        ]
      },
      "properties": {
        "SID": "2023156N10067",
        "NAME": "BIPARJOY",
        "ISO_TIME": "2023-06-11 21:00:00",
        "WMO_WIND": 90,
        "WMO_PRES": 958
      }
    },
    {
      "type": "Feature",
      "geometry": {
        "type": "Point",
        "coordinates": [
          67.7,
          19.2
        ]
      },
      "properties": {
        "SID": "2023156N10067",
        "NAME": "BIPARJOY",
        "ISO_TIME": "2023-06-12 00:00:00",
        "WMO_WIND": 90,
        "WMO_PRES": 958
      }
    },
    {
      "type": "Feature",
      "geometry": {
        "type": "Point",
        "coordinates": [
          67.6,
          19.4
        ]
      },
      "properties": {
        "SID": "2023156N10067",
        "NAME": "BIPARJOY",
        "ISO_TIME": "2023-06-12 03:00:00",
        "WMO_WIND": 90,
        "WMO_PRES": 958
      }
    },
    {
      "type": "Feature",
      "geometry": {
        "type": "Point",
        "coordinates": [
          67.5,
          19.7
        ]
      },
      "properties": {
        "SID": "2023156N10067",
        "NAME": "BIPARJOY",
        "ISO_TIME": "2023-06-12 06:00:00",
        "WMO_WIND": 90,
        "WMO_PRES": 958
      }
    },
    {
      "type": "Feature",
      "geometry": {
        "type": "Point",
        "coordinates": [
          67.4,
          19.8
        ]
      },
      "properties": {
        "SID": "2023156N10067",
        "NAME": "BIPARJOY",
        "ISO_TIME": "2023-06-12 09:00:00",
        "WMO_WIND": 90,
        "WMO_PRES": 958
      }
    },
    {
      "type": "Feature",
      "geometry": {
        "type": "Point",
        "coordinates": [
          67.3,
          19.9
        ]
      },
      "properties": {
        "SID": "2023156N10067",
        "NAME": "BIPARJOY",
        "ISO_TIME": "2023-06-12 12:00:00",
        "WMO_WIND": 90,
        "WMO_PRES": 960
      }
    },
    {
      "type": "Feature",
      "geometry": {
        "type": "Point",
        "coordinates": [
          67.2,
          20.0
        ]
      },
      "properties": {
        "SID": "2023156N10067",
        "NAME": "BIPARJOY",
        "ISO_TIME": "2023-06-12 15:00:00",
        "WMO_WIND": 90,
        "WMO_PRES": 960
      }
    },
    {
      "type": "Feature",
      "geometry": {
        "type": "Point",
        "coordinates": [
          67.2,
          20.2
        ]
      },
      "properties": {
        "SID": "2023156N10067",
        "NAME": "BIPARJOY",
        "ISO_TIME": "2023-06-12 18:00:00",
        "WMO_WIND": 85,
        "WMO_PRES": 962
      }
    },
    {
      "type": "Feature",
      "geometry": {
        "type": "Point",
        "coordinates": [
          67.2,
          20.4
        ]
      },
      "properties": {
        "SID": "2023156N10067",
        "NAME": "BIPARJOY",
        "ISO_TIME": "2023-06-12 21:00:00",
        "WMO_WIND": 85,
        "WMO_PRES": 962
      }
    },
    {
      "type": "Feature",
      "geometry": {
        "type": "Point",
        "coordinates": [
          67.0,
          20.7
        ]
      },
      "properties": {
        "SID": "2023156N10067",
        "NAME": "BIPARJOY",
        "ISO_TIME": "2023-06-13 00:00:00",
        "WMO_WIND": 85,
        "WMO_PRES": 962
      }
    },
    {
      "type": "Feature",
      "geometry": {
        "type": "Point",
        "coordinates": [
          66.9,
          20.9
        ]
      },
      "properties": {
        "SID": "2023156N10067",
        "NAME": "BIPARJOY",
        "ISO_TIME": "2023-06-13 03:00:00",
        "WMO_WIND": 85,
        "WMO_PRES": 962
      }
    },
    {
      "type": "Feature",
      "geometry": {
        "type": "Point",
        "coordinates": [
          66.8,
          21.0
        ]
      },
      "properties": {
        "SID": "2023156N10067",
        "NAME": "BIPARJOY",
        "ISO_TIME": "2023-06-13 06:00:00",
        "WMO_WIND": 85,
        "WMO_PRES": 962
      }
    },
    {
      "type": "Feature",
      "geometry": {
        "type": "Point",
        "coordinates": [
          66.5,
          21.1
        ]
      },
      "properties": {
        "SID": "2023156N10067",
        "NAME": "BIPARJOY",
        "ISO_TIME": "2023-06-13 09:00:00",
        "WMO_WIND": 85,
        "WMO_PRES": 962
      }
    },
    {
      "type": "Feature",
      "geometry": {
        "type": "Point",
        "coordinates": [
          66.5,
          21.2
        ]
      },
      "properties": {
        "SID": "2023156N10067",
        "NAME": "BIPARJOY",
        "ISO_TIME": "2023-06-13 12:00:00",
        "WMO_WIND": 85,
        "WMO_PRES": 962
      }
    },
    {
      "type": "Feature",
      "geometry": {
        "type": "Point",
        "coordinates": [
          66.4,
          21.3
        ]
      },
      "properties": {
        "SID": "2023156N10067",
        "NAME": "BIPARJOY",
        "ISO_TIME": "2023-06-13 15:00:00",
        "WMO_WIND": 85,
        "WMO_PRES": 962
      }
    },
    {
      "type": "Feature",
      "geometry": {
        "type": "Point",
        "coordinates": [
          66.4,
          21.5
        ]
      },
      "properties": {
        "SID": "2023156N10067",
        "NAME": "BIPARJOY",
        "ISO_TIME": "2023-06-13 18:00:00",
        "WMO_WIND": 85,
        "WMO_PRES": 962
      }
    },
    {
      "type": "Feature",
      "geometry": {
        "type": "Point",
        "coordinates": [
          66.3,
          21.5
        ]
      },
      "properties": {
        "SID": "2023156N10067",
        "NAME": "BIPARJOY",
        "ISO_TIME": "2023-06-13 21:00:00",
        "WMO_WIND": 85,
        "WMO_PRES": 964
      }
    },
    {
      "type": "Feature",
      "geometry": {
        "type": "Point",
        "coordinates": [
          66.3,
          21.6
        ]
      },
      "properties": {
        "SID": "2023156N10067",
        "NAME": "BIPARJOY",
        "ISO_TIME": "2023-06-14 00:00:00",
        "WMO_WIND": 80,
        "WMO_PRES": 966
      }
    },
    {
      "type": "Feature",
      "geometry": {
        "type": "Point",
        "coordinates": [
          66.3,
          21.6
        ]
      },
      "properties": {
        "SID": "2023156N10067",
        "NAME": "BIPARJOY",
        "ISO_TIME": "2023-06-14 03:00:00",
        "WMO_WIND": 80,
        "WMO_PRES": 966
      }
    },
    {
      "type": "Feature",
      "geometry": {
        "type": "Point",
        "coordinates": [
          66.4,
          21.6
        ]
      },
      "properties": {
        "SID": "2023156N10067",
        "NAME": "BIPARJOY",
        "ISO_TIME": "2023-06-14 06:00:00",
        "WMO_WIND": 80,
        "WMO_PRES": 966
      }
    },
    {
      "type": "Feature",
      "geometry": {
        "type": "Point",
        "coordinates": [
          66.6,
          21.7
        ]
      },
      "properties": {
        "SID": "2023156N10067",
        "NAME": "BIPARJOY",
        "ISO_TIME": "2023-06-14 09:00:00",
        "WMO_WIND": 80,
        "WMO_PRES": 966
      }
    },
    {
      "type": "Feature",
      "geometry": {
        "type": "Point",
        "coordinates": [
          66.7,
          21.9
        ]
      },
      "properties": {
        "SID": "2023156N10067",
        "NAME": "BIPARJOY",
        "ISO_TIME": "2023-06-14 12:00:00",
        "WMO_WIND": 75,
        "WMO_PRES": 970
      }
    },
    {
      "type": "Feature",
      "geometry": {
        "type": "Point",
        "coordinates": [
          66.8,
          22.1
        ]
      },
      "properties": {
        "SID": "2023156N10067",
        "NAME": "BIPARJOY",
        "ISO_TIME": "2023-06-14 15:00:00",
        "WMO_WIND": 70,
        "WMO_PRES": 974
      }
    },
    {
      "type": "Feature",
      "geometry": {
        "type": "Point",
        "coordinates": [
          66.8,
          22.2
        ]
      },
      "properties": {
        "SID": "2023156N10067",
        "NAME": "BIPARJOY",
        "ISO_TIME": "2023-06-14 18:00:00",
        "WMO_WIND": 70,
        "WMO_PRES": 974
      }
    },
    {
      "type": "Feature",
      "geometry": {
        "type": "Point",
        "coordinates": [
          66.8,
          22.3
        ]
      },
      "properties": {
        "SID": "2023156N10067",
        "NAME": "BIPARJOY",
        "ISO_TIME": "2023-06-14 21:00:00",
        "WMO_WIND": 70,
        "WMO_PRES": 974
      }
    },
    {
      "type": "Feature",
      "geometry": {
        "type": "Point",
        "coordinates": [
          67.0,
          22.3
        ]
      },
      "properties": {
        "SID": "2023156N10067",
        "NAME": "BIPARJOY",
        "ISO_TIME": "2023-06-15 00:00:00",
        "WMO_WIND": 70,
        "WMO_PRES": 974
      }
    },
    {
      "type": "Feature",
      "geometry": {
        "type": "Point",
        "coordinates": [
          67.1,
          22.5
        ]
      },
      "properties": {
        "SID": "2023156N10067",
        "NAME": "BIPARJOY",
        "ISO_TIME": "2023-06-15 03:00:00",
        "WMO_WIND": 70,
        "WMO_PRES": 974
      }
    },
    {
      "type": "Feature",
      "geometry": {
        "type": "Point",
        "coordinates": [
          67.3,
          22.6
        ]
      },
      "properties": {
        "SID": "2023156N10067",
        "NAME": "BIPARJOY",
        "ISO_TIME": "2023-06-15 06:00:00",
        "WMO_WIND": 65,
        "WMO_PRES": 976
      }
    },
    {
      "type": "Feature",
      "geometry": {
        "type": "Point",
        "coordinates": [
          67.7,
          22.7
        ]
      },
      "properties": {
        "SID": "2023156N10067",
        "NAME": "BIPARJOY",
        "ISO_TIME": "2023-06-15 09:00:00",
        "WMO_WIND": 65,
        "WMO_PRES": 976
      }
    },
    {
      "type": "Feature",
      "geometry": {
        "type": "Point",
        "coordinates": [
          68.1,
          22.8
        ]
      },
      "properties": {
        "SID": "2023156N10067",
        "NAME": "BIPARJOY",
        "ISO_TIME": "2023-06-15 12:00:00",
        "WMO_WIND": 65,
        "WMO_PRES": 976
      }
    },
    {
      "type": "Feature",
      "geometry": {
        "type": "Point",
        "coordinates": [
          68.4,
          23.1
        ]
      },
      "properties": {
        "SID": "2023156N10067",
        "NAME": "BIPARJOY",
        "ISO_TIME": "2023-06-15 15:00:00",
        "WMO_WIND": 65,
        "WMO_PRES": 976
      }
    },
    {
      "type": "Feature",
      "geometry": {
        "type": "Point",
        "coordinates": [
          68.6,
          23.3
        ]
      },
      "properties": {
        "SID": "2023156N10067",
        "NAME": "BIPARJOY",
        "ISO_TIME": "2023-06-15 18:00:00",
        "WMO_WIND": 60,
        "WMO_PRES": 980
      }
    },
    {
      "type": "Feature",
      "geometry": {
        "type": "Point",
        "coordinates": [
          68.8,
          23.4
        ]
      },
      "properties": {
        "SID": "2023156N10067",
        "NAME": "BIPARJOY",
        "ISO_TIME": "2023-06-15 21:00:00",
        "WMO_WIND": 50,
        "WMO_PRES": 982
      }
    },
    {
      "type": "Feature",
      "geometry": {
        "type": "Point",
        "coordinates": [
          69.1,
          23.5
        ]
      },
      "properties": {
        "SID": "2023156N10067",
        "NAME": "BIPARJOY",
        "ISO_TIME": "2023-06-16 00:00:00",
        "WMO_WIND": 50,
        "WMO_PRES": 978
      }
    },
    {
      "type": "Feature",
      "geometry": {
        "type": "Point",
        "coordinates": [
          69.4,
          23.5
        ]
      },
      "properties": {
        "SID": "2023156N10067",
        "NAME": "BIPARJOY",
        "ISO_TIME": "2023-06-16 03:00:00",
        "WMO_WIND": 45,
        "WMO_PRES": 978
      }
    },
    {
      "type": "Feature",
      "geometry": {
        "type": "Point",
        "coordinates": [
          69.7,
          23.7
        ]
      },
      "properties": {
        "SID": "2023156N10067",
        "NAME": "BIPARJOY",
        "ISO_TIME": "2023-06-16 06:00:00",
        "WMO_WIND": 40,
        "WMO_PRES": 980
      }
    },
    {
      "type": "Feature",
      "geometry": {
        "type": "Point",
        "coordinates": [
          70.0,
          23.9
        ]
      },
      "properties": {
        "SID": "2023156N10067",
        "NAME": "BIPARJOY",
        "ISO_TIME": "2023-06-16 09:00:00",
        "WMO_WIND": 40,
        "WMO_PRES": 984
      }
    },
    {
      "type": "Feature",
      "geometry": {
        "type": "Point",
        "coordinates": [
          70.4,
          24.2
        ]
      },
      "properties": {
        "SID": "2023156N10067",
        "NAME": "BIPARJOY",
        "ISO_TIME": "2023-06-16 12:00:00",
        "WMO_WIND": 35,
        "WMO_PRES": 986
      }
    },
    {
      "type": "Feature",
      "geometry": {
        "type": "Point",
        "coordinates": [
          70.7,
          24.5
        ]
      },
      "properties": {
        "SID": "2023156N10067",
        "NAME": "BIPARJOY",
        "ISO_TIME": "2023-06-16 15:00:00",
        "WMO_WIND": 35,
        "WMO_PRES": 987
      }
    },
    {
      "type": "Feature",
      "geometry": {
        "type": "Point",
        "coordinates": [
          70.9,
          24.6
        ]
      },
      "properties": {
        "SID": "2023156N10067",
        "NAME": "BIPARJOY",
        "ISO_TIME": "2023-06-16 18:00:00",
        "WMO_WIND": 30,
        "WMO_PRES": 988
      }
    },
    {
      "type": "Feature",
      "geometry": {
        "type": "Point",
        "coordinates": [
          71.0,
          24.7
        ]
      },
      "properties": {
        "SID": "2023156N10067",
        "NAME": "BIPARJOY",
        "ISO_TIME": "2023-06-16 21:00:00",
        "WMO_WIND": null,
        "WMO_PRES": null
      }
    },
    {
      "type": "Feature",
      "geometry": {
        "type": "Point",
        "coordinates": [
          71.2,
          24.8
        ]
      },
      "properties": {
        "SID": "2023156N10067",
        "NAME": "BIPARJOY",
        "ISO_TIME": "2023-06-17 00:00:00",
        "WMO_WIND": 30,
        "WMO_PRES": 988
      }
    },
    {
      "type": "Feature",
      "geometry": {
        "type": "Point",
        "coordinates": [
          71.5,
          25.0
        ]
      },
      "properties": {
        "SID": "2023156N10067",
        "NAME": "BIPARJOY",
        "ISO_TIME": "2023-06-17 03:00:00",
        "WMO_WIND": 30,
        "WMO_PRES": 988
      }
    },
    {
      "type": "Feature",
      "geometry": {
        "type": "Point",
        "coordinates": [
          71.9,
          25.3
        ]
      },
      "properties": {
        "SID": "2023156N10067",
        "NAME": "BIPARJOY",
        "ISO_TIME": "2023-06-17 06:00:00",
        "WMO_WIND": 30,
        "WMO_PRES": 989
      }
    },
    {
      "type": "Feature",
      "geometry": {
        "type": "Point",
        "coordinates": [
          72.2,
          25.5
        ]
      },
      "properties": {
        "SID": "2023156N10067",
        "NAME": "BIPARJOY",
        "ISO_TIME": "2023-06-17 09:00:00",
        "WMO_WIND": null,
        "WMO_PRES": null
      }
    },
    {
      "type": "Feature",
      "geometry": {
        "type": "Point",
        "coordinates": [
          72.5,
          25.6
        ]
      },
      "properties": {
        "SID": "2023156N10067",
        "NAME": "BIPARJOY",
        "ISO_TIME": "2023-06-17 12:00:00",
        "WMO_WIND": 25,
        "WMO_PRES": 990
      }
    },
    {
      "type": "Feature",
      "geometry": {
        "type": "Point",
        "coordinates": [
          72.7,
          25.7
        ]
      },
      "properties": {
        "SID": "2023156N10067",
        "NAME": "BIPARJOY",
        "ISO_TIME": "2023-06-17 15:00:00",
        "WMO_WIND": null,
        "WMO_PRES": null
      }
    },
    {
      "type": "Feature",
      "geometry": {
        "type": "Point",
        "coordinates": [
          72.8,
          25.8
        ]
      },
      "properties": {
        "SID": "2023156N10067",
        "NAME": "BIPARJOY",
        "ISO_TIME": "2023-06-17 18:00:00",
        "WMO_WIND": 25,
        "WMO_PRES": 991
      }
    },
    {
      "type": "Feature",
      "geometry": {
        "type": "Point",
        "coordinates": [
          73.0,
          25.9
        ]
      },
      "properties": {
        "SID": "2023156N10067",
        "NAME": "BIPARJOY",
        "ISO_TIME": "2023-06-17 21:00:00",
        "WMO_WIND": null,
        "WMO_PRES": null
      }
    },
    {
      "type": "Feature",
      "geometry": {
        "type": "Point",
        "coordinates": [
          73.3,
          26.0
        ]
      },
      "properties": {
        "SID": "2023156N10067",
        "NAME": "BIPARJOY",
        "ISO_TIME": "2023-06-18 00:00:00",
        "WMO_WIND": 25,
        "WMO_PRES": 991
      }
    },
    {
      "type": "Feature",
      "geometry": {
        "type": "Point",
        "coordinates": [
          73.8,
          26.2
        ]
      },
      "properties": {
        "SID": "2023156N10067",
        "NAME": "BIPARJOY",
        "ISO_TIME": "2023-06-18 03:00:00",
        "WMO_WIND": 25,
        "WMO_PRES": 992
      }
    },
    {
      "type": "Feature",
      "geometry": {
        "type": "Point",
        "coordinates": [
          74.0,
          26.3
        ]
      },
      "properties": {
        "SID": "2023156N10067",
        "NAME": "BIPARJOY",
        "ISO_TIME": "2023-06-18 06:00:00",
        "WMO_WIND": 25,
        "WMO_PRES": 994
      }
    },
    {
      "type": "Feature",
      "geometry": {
        "type": "Point",
        "coordinates": [
          74.3,
          26.3
        ]
      },
      "properties": {
        "SID": "2023156N10067",
        "NAME": "BIPARJOY",
        "ISO_TIME": "2023-06-18 09:00:00",
        "WMO_WIND": null,
        "WMO_PRES": null
      }
    },
    {
      "type": "Feature",
      "geometry": {
        "type": "Point",
        "coordinates": [
          74.7,
          26.3
        ]
      },
      "properties": {
        "SID": "2023156N10067",
        "NAME": "BIPARJOY",
        "ISO_TIME": "2023-06-18 12:00:00",
        "WMO_WIND": 20,
        "WMO_PRES": 995
      }
    },
    {
      "type": "Feature",
      "geometry": {
        "type": "Point",
        "coordinates": [
          74.9,
          26.3
        ]
      },
      "properties": {
        "SID": "2023156N10067",
        "NAME": "BIPARJOY",
        "ISO_TIME": "2023-06-18 15:00:00",
        "WMO_WIND": null,
        "WMO_PRES": null
      }
    },
    {
      "type": "Feature",
      "geometry": {
        "type": "Point",
        "coordinates": [
          75.2,
          26.3
        ]
      },
      "properties": {
        "SID": "2023156N10067",
        "NAME": "BIPARJOY",
        "ISO_TIME": "2023-06-18 18:00:00",
        "WMO_WIND": 20,
        "WMO_PRES": 995
      }
    },
    {
      "type": "Feature",
      "geometry": {
        "type": "Point",
        "coordinates": [
          75.6,
          26.3
        ]
      },
      "properties": {
        "SID": "2023156N10067",
        "NAME": "BIPARJOY",
        "ISO_TIME": "2023-06-18 21:00:00",
        "WMO_WIND": null,
        "WMO_PRES": null
      }
    },
    {
      "type": "Feature",
      "geometry": {
        "type": "Point",
        "coordinates": [
          76.0,
          26.3
        ]
      },
      "properties": {
        "SID": "2023156N10067",
        "NAME": "BIPARJOY",
        "ISO_TIME": "2023-06-19 00:00:00",
        "WMO_WIND": 20,
        "WMO_PRES": 995
      }
    }
  ]
}